From:	Horizons Ephemeris System <horizons@ssd.jpl.nasa.gov>
Sent:	Friday, December 4, 2020 11:15 AM
Subject:	[Horizons] MAJOR BODY #C(usr={90.,-25.,.600^G}@301)_T(301) (1/1)

 Automated mail xmit by MAIL_REQUEST, PID= 30251 Fri Dec  4 09:14:48 2020
++++++++++++++++++++++++++++++++ (part 1 of 1)  +++++++++++++++++++++++++++++++
*******************************************************************************
 Revised: July 31, 2013             Moon / (Earth)                          301
 
 GEOPHYSICAL DATA (updated 2018-Aug-15):
  Vol. mean radius, km  = 1737.53+-0.03    Mass, x10^22 kg       =    7.349
  Radius (gravity), km  = 1738.0           Surface emissivity    =    0.92
  Radius (IAU), km      = 1737.4           GM, km^3/s^2          = 4902.800066
  Density, g/cm^3       =    3.3437        GM 1-sigma, km^3/s^2  =  +-0.0001  
  V(1,0)                =   +0.21          Surface accel., m/s^2 =    1.62
  Earth/Moon mass ratio = 81.3005690769    Farside crust. thick. = ~80 - 90 km
  Mean crustal density  = 2.97+-.07 g/cm^3 Nearside crust. thick.= 58+-8 km 
  Heat flow, Apollo 15  = 3.1+-.6 mW/m^2   Mean angular diameter = 31'05.2"
  Heat flow, Apollo 17  = 2.2+-.5 mW/m^2   Sid. rot. rate, rad/s = 0.0000026617
  Geometric Albedo      = 0.12             Mean solar day        = 29.5306 d
  Obliquity to orbit    = 6.67 deg         Orbit period          = 27.321582 d
  Semi-major axis, a    = 384400 km        Eccentricity          = 0.05490
  Mean motion, rad/s    = 2.6616995x10^-6  Inclination           = 5.145 deg
  Apsidal period        = 3231.50 d        Nodal period          = 6798.38 d
                                 Perihelion  Aphelion    Mean
  Solar Constant (W/m^2)         1414+-7     1323+-7     1368+-7
  Maximum Planetary IR (W/m^2)   1314        1226        1268
  Minimum Planetary IR (W/m^2)      5.2         5.2         5.2
********************************************************************************
 
 
*******************************************************************************
Ephemeris / MAIL_REQUEST Fri Dec  4 09:14:47 2020 Pasadena, USA  / Horizons
*******************************************************************************
Target body name: Moon (301)                      {source: DE431mx}
Center body name: Moon (301)                      {source: DE431mx}
Center-site name: (user defined site below)
*******************************************************************************
Start time      : A.D. 2020-Jan-01 00:00:00.0000 TDB
Stop  time      : A.D. 2039-Jan-01 00:00:00.0000 TDB
Step-size       : 10000 steps
*******************************************************************************
Center geodetic : 90.0000000,-25.000000,0.6000000 {E-lon(deg),Lat(deg),Alt(km)}
Center cylindric: 90.0000000,1575.16293,-734.5105 {E-lon(deg),Dxy(km),Dz(km)}
Center pole/equ : IAU_MOON                        {East-longitude positive}
Center radii    : 1737.4 x 1737.4 x 1737.4 km     {Equator, meridian, pole}    
Output units    : KM-S
Output type     : GEOMETRIC cartesian states
Output format   : 3 (position, velocity, LT, range, range-rate)
Reference frame : Ecliptic of J2000.0
*******************************************************************************
JDTDB
   X     Y     Z
   VX    VY    VZ
   LT    RG    RR
*******************************************************************************
$$SOE
2463646.428000002 = A.D. 2033-Feb-17 22:16:19.2002 TDB 
   3.109859412071486E+02 -1.563383309038928E+03  6.926502532952654E+02
   4.114657846926715E-03  8.074974035864444E-04 -2.479285949996652E-05
   5.797343974543883E-03  1.738000000000000E+03 -5.389819775762232E-20
2463647.122000002 = A.D. 2033-Feb-18 14:55:40.8002 TDB 
   5.528085192554310E+02 -1.495527218710609E+03  6.916972452846164E+02
   3.934125828630754E-03  1.451011463279885E-03 -6.926637233842605E-06
   5.797343974543883E-03  1.738000000000000E+03 -1.771653722588512E-19
2463647.816000002 = A.D. 2033-Feb-19 07:35:02.4002 TDB 
   7.807782710279009E+02 -1.390111545619148E+03  6.918230859309516E+02
   3.653583322871997E-03  2.057624577658624E-03  1.111441959798082E-05
   5.797343974543883E-03  1.738000000000000E+03  3.483420558779664E-19
2463648.510000002 = A.D. 2033-Feb-20 00:14:24.0002 TDB 
   9.891000469973050E+02 -1.249816932820664E+03  6.930243368487696E+02
   3.280166464152254E-03  2.611916809076994E-03  2.886630409305901E-05
   5.797343974543884E-03  1.738000000000000E+03 -1.616945932728669E-19
2463649.204000002 = A.D. 2033-Feb-20 16:53:45.6002 TDB 
   1.172478429919255E+03 -1.078210586277519E+03  6.952699209754217E+02
   2.823372034381091E-03  3.099799868832983E-03  4.587315372937004E-05
   5.797343974543884E-03  1.738000000000000E+03 -6.108462412530527E-19
2463649.898000002 = A.D. 2033-Feb-21 09:33:07.2002 TDB 
   1.326252314433537E+03 -8.796555003959296E+02  6.985019678446688E+02
   2.294815500678517E-03  3.508875108245496E-03  6.169906769290545E-05
   5.797343974543884E-03  1.738000000000000E+03  3.992459093157208E-19
2463650.592000002 = A.D. 2033-Feb-22 02:12:28.8002 TDB 
   1.446513331111409E+03 -6.591994685294408E+02  7.026373485714234E+02
   1.707935271005721E-03  3.828748365761707E-03  7.593924485570637E-05
   5.797343974543884E-03  1.738000000000000E+03 -2.435400046825897E-19
2463651.286000002 = A.D. 2033-Feb-22 18:51:50.4002 TDB 
   1.530205111177886E+03 -4.224467103850500E+02  7.075698513997916E+02
   1.077650752341132E-03  4.051293704442335E-03  8.823017095023044E-05
   5.797343974543884E-03  1.738000000000000E+03 -4.591327957130789E-19
2463651.980000002 = A.D. 2033-Feb-23 11:31:12.0002 TDB 
   1.575200878647345E+03 -1.754153871785144E+02  7.131729340416988E+02
   4.199829516309324E-04  4.170859396320442E-03  9.825863840571322E-05
   5.797343974543885E-03  1.738000000000000E+03 -1.916380364715459E-19
2463652.674000002 = A.D. 2033-Feb-24 04:10:33.6002 TDB 
   1.580357409650902E+03  7.561537002238614E+01  7.193029775955818E+02
  -2.483527149393362E-04  4.184410992170304E-03  1.057694325371969E-04
   5.797343974543884E-03  1.738000000000000E+03  7.984918186314416E-20
2463653.368000002 = A.D. 2033-Feb-24 20:49:55.2002 TDB 
   1.545543999839375E+03  3.242650313238393E+02  7.258029581236601E+02
  -9.103710624272535E-04  4.091607916937491E-03  1.105715579042335E-04
   5.797343974543884E-03  1.738000000000000E+03 -7.984918186314419E-21
2463654.062000002 = A.D. 2033-Feb-25 13:29:16.8002 TDB 
   1.471645714642409E+03  5.642137876436469E+02  7.325064453009563E+02
  -1.549248470460145E-03  3.894811711568514E-03  1.125429066937448E-04
   5.797343974543884E-03  1.738000000000000E+03 -1.277586909810307E-19
2463654.756000002 = A.D. 2033-Feb-26 06:08:38.4002 TDB 
   1.360540847941273E+03  7.893631069129048E+02  7.392418322362767E+02
  -2.148750004257748E-03  3.599025760199710E-03  1.116332886982152E-04
   5.797343974543883E-03  1.738000000000000E+03  1.437285273536595E-19
2463655.450000002 = A.D. 2033-Feb-26 22:48:00.0002 TDB 
   1.215053166365611E+03  9.939906567061236E+02  7.458366961244485E+02
  -2.693641537336230E-03  3.211768057630158E-03  1.078657548238160E-04
   5.797343974543883E-03  1.738000000000000E+03 -3.912609911294064E-19
2463656.144000002 = A.D. 2033-Feb-27 15:27:21.6002 TDB 
   1.038880153010405E+03  1.172895666914815E+03  7.521221856942728E+02
  -3.170076471782740E-03  2.742880246603477E-03  1.013361597391614E-04
   5.797343974543884E-03  1.738000000000000E+03  1.006099691475616E-18
2463656.838000002 = A.D. 2033-Feb-28 08:06:43.2002 TDB 
   8.364990704066329E+02  1.321531048028931E+03  7.579373287445314E+02
  -3.565947287666274E-03  2.204277749749137E-03  9.221093067790823E-05
   5.797343974543885E-03  1.738000000000000E+03 -3.673062365704631E-19
2463657.532000002 = A.D. 2033-Mar-01 00:46:04.8002 TDB 
   6.130532231871773E+02  1.436118914932893E+03  7.631331520198709E+02
  -3.871193029200689E-03  1.609647300065551E-03  8.072304285741498E-05
   5.797343974543884E-03  1.738000000000000E+03  1.197737727947162E-20
2463658.226000002 = A.D. 2033-Mar-01 17:25:26.4002 TDB 
   3.742213022618119E+02  1.513746584727744E+03  7.675765070392429E+02
  -4.078054932876025E-03  9.740995012533461E-04  6.716624857069123E-05
   5.797343974543884E-03  1.738000000000000E+03  1.916380364715460E-19
2463658.920000002 = A.D. 2033-Mar-02 10:04:48.0002 TDB 
   1.260731217542876E+02  1.552440609950306E+03  7.711534999909245E+02
  -4.181273698186956E-03  3.137851914307748E-04  5.188766446865615E-05
   5.797343974543884E-03  1.738000000000000E+03  3.992459093157208E-21
2463659.614000002 = A.D. 2033-Mar-03 02:44:09.6002 TDB 
  -1.250845934108044E+02  1.551216963557699E+03  7.737724319605127E+02
  -4.178223364999575E-03 -3.545146889903066E-04  3.527888494616715E-05
   5.797343974543884E-03  1.738000000000000E+03  1.357436091673451E-19
2463660.308000002 = A.D. 2033-Mar-03 19:23:31.2002 TDB 
  -3.728684567745237E+02  1.510106095569829E+03  7.753661677333057E+02
  -4.068978358463898E-03 -1.013815338275875E-03  1.776585246618194E-05
   5.797343974543885E-03  1.738000000000000E+03  6.088500117064743E-20
2463661.002000002 = A.D. 2033-Mar-04 12:02:52.8002 TDB 
  -6.109806380234684E+02  1.430152218174132E+03  7.758938669766926E+02
  -3.856311953271851E-03 -1.647359630522492E-03 -2.022285675669280E-07
   5.797343974543883E-03  1.738000000000000E+03  1.853062458784920E-19
2463661.696000002 = A.D. 2033-Mar-05 04:42:14.4002 TDB 
  -8.333689279648867E+02  1.313386830368326E+03  7.753420301503697E+02
  -3.545626151433323E-03 -2.239043985307131E-03 -1.816460519201487E-05
   5.797343974543882E-03  1.738000000000000E+03  1.996229546578605E-21
2463662.390000002 = A.D. 2033-Mar-05 21:21:36.0002 TDB 
  -1.034380581785254E+03  1.162777148151817E+03  7.737248320698568E+02
  -3.144814716579689E-03 -2.773827735559423E-03 -3.566096263256488E-05
   5.797343974543883E-03  1.738000000000000E+03 -4.232006638746640E-19
